{
    "links": {
        "self": "http://www.neowsapp.com/rest/v1/neo/3745108?api_key=iIulBulltgU6a56xZRHN4H3l9WmuAYTsLGpBGhQ2"
    },
    "id": "3745108",
    "neo_reference_id": "3745108",
    "name": "(2016 EE27)",
    "designation": "2016 EE27",
    "nasa_jpl_url": "http://ssd.jpl.nasa.gov/sbdb.cgi?sstr=3745108",
    "absolute_magnitude_h": 23.9,
    "estimated_diameter": {
        "kilometers": {
            "estimated_diameter_min": 0.04411182,
            "estimated_diameter_max": 0.0986370281
        },
        "meters": {
            "estimated_diameter_min": 44.1118199997,
            "estimated_diameter_max": 98.6370281305
        },
        "miles": {
            "estimated_diameter_min": 0.0274098057,
            "estimated_diameter_max": 0.0612901888
        },
        "feet": {
            "estimated_diameter_min": 144.7238235278,
            "estimated_diameter_max": 323.6123073718
        }
    },
    "is_potentially_hazardous_asteroid": false,
    "close_approach_data": [
        {
            "close_approach_date": "2016-02-20",
            "close_approach_date_full": "2016-Feb-20 00:17",
            "epoch_date_close_approach": 1455927420000,
            "relative_velocity": {
                "kilometers_per_second": "22.6621346159",
                "kilometers_per_hour": "81583.6846174135",
                "miles_per_hour": "50692.9289224145"
            },
            "miss_distance": {
                "astronomical": "0.032343363",
                "lunar": "12.581568207",
                "kilometers": "4838498.21343681",
                "miles": "3006503.376415578"
            },
            "orbiting_body": "Earth"
        }
    ],
    "orbital_data": {
        "orbit_id": "3",
        "orbit_determination_date": "2017-04-06 08:27:50",
        "first_observation_date": "2016-03-03",
        "last_observation_date": "2016-03-05",
        "data_arc_in_days": 2,
        "observations_used": 16,
        "orbit_uncertainty": "9",
        "minimum_orbit_intersection": ".0205765",
        "jupiter_tisserand_invariant": "2.752",
        "epoch_osculation": "2457451.5",
        "eccentricity": ".7982682757275278",
        "semi_major_axis": "2.775214346362564",
        "inclination": "4.028780815149076",
        "ascending_node_longitude": "134.9740142109782",
        "orbital_period": "1688.663921519829",
        "perihelion_distance": ".5598487753174219",
        "perihelion_argument": "288.5923139234899",
        "aphelion_distance": "4.990579917407706",
        "perihelion_time": "2457395.525670070511",
        "mean_anomaly": "11.93295984939382",
        "mean_motion": ".2131862920811343",
        "equinox": "J2000",
        "orbit_class": {
            "orbit_class_type": "APO",
            "orbit_class_description": "Near-Earth asteroid orbits which cross the Earth’s orbit similar to that of 1862 Apollo",
            "orbit_class_range": "a (semi-major axis) > 1.0 AU; q (perihelion) < 1.017 AU"
        }
    },
    "is_sentry_object": false
}